OBJECT_NAME,OBJECT_ID,EPOCH,MEAN_MOTION,ECCENTRICITY,INCLINATION,RA_OF_ASC_NODE,ARG_OF_PERICENTER,MEAN_ANOMALY,EPHEMERIS_TYPE,CLASSIFICATION_TYPE,NORAD_CAT_ID,ELEMENT_SET_NO,REV_AT_EPOCH,BSTAR,MEAN_MOTION_DOT,MEAN_MOTION_DDOT
IRIDIUM 138,2017-083B,2026-06-26T15:58:15.170304,14.34217951,.0002224,86.3986,317.7491,87.1423,273.0027,0,U,43071,999,44549,.14731E-4,.61E-6,0
IRIDIUM 116,2017-083C,2026-06-26T15:12:35.142912,14.34218111,.0002162,86.3972,318.0512,101.7438,258.4001,0,U,43072,999,44552,.41652E-4,.136E-5,0
IRIDIUM 130,2017-083D,2026-06-26T16:07:23.028384,14.34217011,.0001995,86.3978,318.3114,96.5905,263.5518,0,U,43073,999,44547,.16376E-4,.66E-6,0
IRIDIUM 151,2017-083E,2026-06-26T10:29:27.179232,14.34217730,.0002196,86.3972,318.1913,93.9622,266.1825,0,U,43074,999,44546,.38011E-5,.3E-6,0
IRIDIUM 134,2017-083F,2026-06-26T18:06:07.083360,14.34218573,.0002129,86.3975,318.0670,94.0567,266.0872,0,U,43075,999,44547,.46242E-4,.149E-5,0
IRIDIUM 137,2017-083G,2026-06-26T15:03:27.231264,14.34217366,.0002384,86.3975,318.2132,102.2542,257.8921,0,U,43076,999,44552,-.11976E-4,-.14E-6,0
IRIDIUM 141,2017-083H,2026-06-26T14:54:19.159776,14.34217825,.0002208,86.3971,318.0457,91.3651,268.7797,0,U,43077,999,44552,.691E-5,.39E-6,0
IRIDIUM 153,2017-083J,2026-06-26T17:06:23.410080,14.34217528,.0002076,86.3964,286.4883,91.0658,269.0776,0,U,43078,999,44664,-.30743E-5,.11E-6,0
IRIDIUM 131,2017-083K,2026-06-26T09:34:39.177120,14.34217373,.0002131,86.3974,318.3253,92.3023,267.8417,0,U,43079,999,44542,-.66765E-6,.18E-6,0
IRIDIUM 144,2018-030A,2026-06-26T17:15:31.124736,14.34216777,.0002176,86.3964,286.4143,98.0418,262.1024,0,U,43249,999,43150,.53825E-4,.171E-5,0
IRIDIUM 149,2018-030B,2026-06-26T17:24:39.433824,14.34217719,.0002295,86.3963,286.3786,93.8278,266.3180,0,U,43250,999,43152,.33632E-6,.21E-6,0
IRIDIUM 157,2018-030C,2026-06-26T17:52:03.323424,14.34218804,.000221,86.3964,286.4241,94.6643,265.4805,0,U,43251,999,43150,.81662E-4,.248E-5,0
IRIDIUM 140,2018-030D,2026-06-26T16:38:59.313120,14.34217714,.000215,86.3964,286.4579,95.3259,264.8182,0,U,43252,999,43155,.63862E-4,.199E-5,0
IRIDIUM 145,2018-030E,2026-06-26T16:20:43.328256,14.34218369,.0002207,86.3962,286.4354,102.9495,257.1947,0,U,43253,999,43148,.30442E-4,.105E-5,0
IRIDIUM 146,2018-030F,2026-06-26T17:33:47.418048,14.34217821,.0002257,86.3964,286.4264,97.9039,262.2413,0,U,43254,999,43150,.19855E-4,.75E-6,0
IRIDIUM 148,2018-030G,2026-06-26T16:48:07.425216,14.34217690,.0002216,86.3965,286.4832,96.0889,264.0559,0,U,43255,999,43153,-.19123E-5,.14E-6,0
IRIDIUM 142,2018-030H,2026-06-26T17:42:55.418688,14.34217737,.0002274,86.3961,286.3557,99.5971,260.5482,0,U,43256,999,43150,-.10771E-5,.17E-6,0
IRIDIUM 150,2018-030J,2026-06-26T16:57:15.359328,14.34218243,.0002167,86.3967,286.4856,95.6224,264.5219,0,U,43257,999,43152,.46779E-4,.151E-5,0
IRIDIUM 143,2018-030K,2026-06-26T16:29:51.389376,14.34218322,.0002218,86.3969,286.5864,98.1945,261.9503,0,U,43258,999,43145,.77458E-4,.237E-5,0
IRIDIUM 161,2018-047C,2026-06-26T17:40:46.234272,14.43277568,.0002516,86.4485,84.4797,85.1732,274.9756,0,U,43478,999,42651,.76781E-4,.278E-5,0
IRIDIUM 152,2018-047D,2026-06-26T17:31:02.184096,14.34218251,.0002312,86.3956,84.3426,82.6314,277.5145,0,U,43479,999,42385,.74777E-4,.229E-5,0
IRIDIUM 147,2018-047E,2026-06-26T17:40:10.246080,14.34217575,.0002025,86.3954,84.3453,87.1088,273.0339,0,U,43480,999,42385,-.45029E-5,.7E-7,0
IRIDIUM 110,2018-047F,2026-06-26T17:49:18.308064,14.34217380,.0002358,86.3957,84.4347,78.3054,281.8406,0,U,43481,999,42384,-.93818E-5,-.6E-7,0
IRIDIUM 162,2018-047G,2026-06-26T17:31:42.139776,14.43278923,.000228,86.4481,84.3722,83.8329,276.3131,0,U,43482,999,42650,.79563E-4,.288E-5,0
IRIDIUM 160,2018-061A,2026-06-26T16:31:18.486624,14.34217798,.0002254,86.3955,52.8244,85.6552,274.4901,0,U,43569,999,41473,.66827E-5,.38E-6,0
IRIDIUM 166,2018-061B,2026-06-26T17:07:50.446848,14.34217483,.000203,86.3948,52.7638,88.1888,271.9540,0,U,43570,999,41476,-.75759E-5,-.1E-7,0
IRIDIUM 158,2018-061C,2026-06-26T14:41:42.447840,14.34217582,.0002167,86.3950,52.8165,84.0710,276.0733,0,U,43571,999,41471,.22409E-4,.83E-6,0
IRIDIUM 165,2018-061D,2026-06-26T16:58:42.429792,14.34217590,.0002144,86.3954,52.8232,89.6106,270.5336,0,U,43572,999,41475,.26592E-4,.94E-6,0
IRIDIUM 155,2018-061E,2026-06-26T17:44:22.432128,14.34218105,.0002067,86.3951,52.6785,84.8624,275.2808,0,U,43573,999,41472,.22673E-4,.83E-6,0
IRIDIUM 154,2018-061F,2026-06-26T17:16:58.425024,14.34218137,.0002178,86.3955,52.8206,89.4832,270.6613,0,U,43574,999,41477,.31445E-4,.108E-5,0
IRIDIUM 163,2018-061G,2026-06-26T16:49:34.493952,14.34217800,.0002212,86.3952,52.7435,83.7222,276.4226,0,U,43575,999,41474,.27837E-4,.98E-6,0
