IRIDIUM 138             
1 43071U 17083B   26177.66545336  .00000061  00000+0  14731-4 0  9991
2 43071  86.3986 317.7491 0002224  87.1423 273.0027 14.34217951445498
IRIDIUM 116             
1 43072U 17083C   26177.63374008  .00000136  00000+0  41652-4 0  9990
2 43072  86.3972 318.0512 0002162 101.7438 258.4001 14.34218111445524
IRIDIUM 130             
1 43073U 17083D   26177.67179431  .00000066  00000+0  16376-4 0  9995
2 43073  86.3978 318.3114 0001995  96.5905 263.5518 14.34217011445477
IRIDIUM 151             
1 43074U 17083E   26177.43712013  .00000030  00000+0  38011-5 0  9991
2 43074  86.3972 318.1913 0002196  93.9622 266.1825 14.34217730445465
IRIDIUM 134             
1 43075U 17083F   26177.75424865  .00000149  00000+0  46242-4 0  9997
2 43075  86.3975 318.0670 0002129  94.0567 266.0872 14.34218573445472
IRIDIUM 137             
1 43076U 17083G   26177.62739851 -.00000014  00000+0 -11976-4 0  9997
2 43076  86.3975 318.2132 0002384 102.2542 257.8921 14.34217366445524
IRIDIUM 141             
1 43077U 17083H   26177.62105509  .00000039  00000+0  69100-5 0  9993
2 43077  86.3971 318.0457 0002208  91.3651 268.7797 14.34217825445525
IRIDIUM 153             
1 43078U 17083J   26177.71277095  .00000011  00000+0 -30743-5 0  9996
2 43078  86.3964 286.4883 0002076  91.0658 269.0776 14.34217528446641
IRIDIUM 131             
1 43079U 17083K   26177.39906455  .00000018  00000+0 -66765-6 0  9991
2 43079  86.3974 318.3253 0002131  92.3023 267.8417 14.34217373445422
IRIDIUM 144             
1 43249U 18030A   26177.71911024  .00000171  00000+0  53825-4 0  9997
2 43249  86.3964 286.4143 0002176  98.0418 262.1024 14.34216777431506
IRIDIUM 149             
1 43250U 18030B   26177.72545641  .00000021  00000+0  33632-6 0  9998
2 43250  86.3963 286.3786 0002295  93.8278 266.3180 14.34217719431526
IRIDIUM 157             
1 43251U 18030C   26177.74448291  .00000248  00000+0  81662-4 0  9999
2 43251  86.3964 286.4241 0002210  94.6643 265.4805 14.34218804431505
IRIDIUM 140             
1 43252U 18030D   26177.69374205  .00000199  00000+0  63862-4 0  9994
2 43252  86.3964 286.4579 0002150  95.3259 264.8182 14.34217714431559
IRIDIUM 145             
1 43253U 18030E   26177.68105704  .00000105  00000+0  30442-4 0  9995
2 43253  86.3962 286.4354 0002207 102.9495 257.1947 14.34218369431482
IRIDIUM 146             
1 43254U 18030F   26177.73179882  .00000075  00000+0  19855-4 0  9991
2 43254  86.3964 286.4264 0002257  97.9039 262.2413 14.34217821431507
IRIDIUM 148             
1 43255U 18030G   26177.70008594  .00000014  00000+0 -19123-5 0  9993
2 43255  86.3965 286.4832 0002216  96.0889 264.0559 14.34217690431536
IRIDIUM 142             
1 43256U 18030H   26177.73814142  .00000017  00000+0 -10771-5 0  9994
2 43256  86.3961 286.3557 0002274  99.5971 260.5482 14.34217737431505
IRIDIUM 150             
1 43257U 18030J   26177.70642777  .00000151  00000+0  46779-4 0  9999
2 43257  86.3967 286.4856 0002167  95.6224 264.5219 14.34218243431521
IRIDIUM 143             
1 43258U 18030K   26177.68740034  .00000237  00000+0  77458-4 0  9995
2 43258  86.3969 286.5864 0002218  98.1945 261.9503 14.34218322431456
IRIDIUM 161             
1 43478U 18047C   26177.73664623  .00000278  00000+0  76781-4 0  9995
2 43478  86.4485  84.4797 0002516  85.1732 274.9756 14.43277568426517
IRIDIUM 152             
1 43479U 18047D   26177.72988639  .00000229  00000+0  74777-4 0  9990
2 43479  86.3956  84.3426 0002312  82.6314 277.5145 14.34218251423859
IRIDIUM 147             
1 43480U 18047E   26177.73622970  .00000007  00000+0 -45029-5 0  9990
2 43480  86.3954  84.3453 0002025  87.1088 273.0339 14.34217575423852
IRIDIUM 110             
1 43481U 18047F   26177.74257301 -.00000006  00000+0 -93818-5 0  9993
2 43481  86.3957  84.4347 0002358  78.3054 281.8406 14.34217380423848
IRIDIUM 162             
1 43482U 18047G   26177.73034884  .00000288  00000+0  79563-4 0  9992
2 43482  86.4481  84.3722 0002280  83.8329 276.3131 14.43278923426508
IRIDIUM 160             
1 43569U 18061A   26177.68840841  .00000038  00000+0  66827-5 0  9999
2 43569  86.3955  52.8244 0002254  85.6552 274.4901 14.34217798414736
IRIDIUM 166             
1 43570U 18061B   26177.71377832 -.00000001  00000+0 -75759-5 0  9996
2 43570  86.3948  52.7638 0002030  88.1888 271.9540 14.34217483414763
IRIDIUM 158             
1 43571U 18061C   26177.61229685  .00000083  00000+0  22409-4 0  9999
2 43571  86.3950  52.8165 0002167  84.0710 276.0733 14.34217582414718
IRIDIUM 165             
1 43572U 18061D   26177.70743553  .00000094  00000+0  26592-4 0  9994
2 43572  86.3954  52.8232 0002144  89.6106 270.5336 14.34217590414754
IRIDIUM 155             
1 43573U 18061E   26177.73914852  .00000083  00000+0  22673-4 0  9994
2 43573  86.3951  52.6785 0002067  84.8624 275.2808 14.34218105414725
IRIDIUM 154             
1 43574U 18061F   26177.72012066  .00000108  00000+0  31445-4 0  9995
2 43574  86.3955  52.8206 0002178  89.4832 270.6613 14.34218137414778
IRIDIUM 163             
1 43575U 18061G   26177.70109368  .00000098  00000+0  27837-4 0  9994
2 43575  86.3952  52.7435 0002212  83.7222 276.4226 14.34217800414745
